export const space_time = {
	Mercury: {
		generatedTimeZone: false,
		name: "Mercury",
		GM_km3_s2: 22031.86855,
		GM_km3_s2_primary: 132700000000,
		radius_km: 2440,
		surface_gravity_ms: 3.7005960343321687,
		semiMajorAxis_0_km: 57909070.25241733,
		eccentricity_0: 0.2056302515978038,
		inclination_0_deg: 7.005014362233553,
		longitudOfAscendingNode_0_deg: 48.33053877672862,
		argumentOfPeriapsis_0_deg: 29.12427943500334,
		trueAnomaly_0_deg: 175.1155302923815,
		semiMajorAxis_km_Cy: 0,
		eccentricity_Cy: 0,
		inclination_sec_Cy: 0,
		longitudOfAscendingNode_sec_Cy: 0,
		argumentOfPeriapsis_sec_Cy: 0,
		trueAnomaly_sec_Cy: 0,
		period_ms: 7600887337.010863,
		meanAnomaly_0_deg: null,
	},
	Venus: {
		generatedTimeZone: false,
		name: "Venus",
		GM_km3_s2: 324858.592,
		GM_km3_s2_primary: 132700000000,
		radius_km: 6051.893,
		surface_gravity_ms: 8.869760144761234,
		semiMajorAxis_0_km: 108208156.5316098,
		eccentricity_0: 0.006755697268576816,
		inclination_0_deg: 3.394589632757466,
		longitudOfAscendingNode_0_deg: 76.6783751109416,
		argumentOfPeriapsis_0_deg: 55.18541504725159,
		trueAnomaly_0_deg: 49.90452231912491,
		semiMajorAxis_km_Cy: 0,
		eccentricity_Cy: 0,
		inclination_sec_Cy: 0,
		longitudOfAscendingNode_sec_Cy: 0,
		argumentOfPeriapsis_sec_Cy: 0,
		trueAnomaly_sec_Cy: 0,
		period_ms: 19414866312.342583,
		meanAnomaly_0_deg: null,
	},
	Earth: {
		generatedTimeZone: true,
		name: "Earth",
		dayLength_ms: 86400000,
		yearLength_ms: 31558149000,
		yearLength_hd: 365,
		hDayLength_ms: 86400000,
		weekLength_d: 7,
		weekLength_hd: 7,
		hYearLength_ms: 31536000000,
		monthCount: 12,
		nominalMonthLength_hd: 30,
		nominalMonthLength_ms: 2592000000,
		leapYearFreq_hd: [4, 158],
		leapYearBlocks_ms: [126230400000, 4986144000000],
		monthRemainder_hd: 5,
		initialWeekDay: 6,
		initialYearProgress: 0,
		GM_km3_s2: 398600.435436,
		GM_km3_s2_primary: 132700000000,
		radius_km: 6378.137,
		surface_gravity_ms: 9.798285322749217,
		semiMajorAxis_0_km: 149653496.2738141,
		eccentricity_0: 0.01704239718110438,
		inclination_0_deg: 0.0002668809336274974,
		longitudOfAscendingNode_0_deg: 163.9748712430063,
		argumentOfPeriapsis_0_deg: 297.7671795415902,
		trueAnomaly_0_deg: 358.1260865474801,
		semiMajorAxis_km_Cy: 0,
		eccentricity_Cy: 0,
		inclination_sec_Cy: 0,
		longitudOfAscendingNode_sec_Cy: 0,
		argumentOfPeriapsis_sec_Cy: 0,
		trueAnomaly_sec_Cy: 0,
		period_ms: 31577279278.169163,
		meanAnomaly_0_deg: null,
	},
	Mars: {
		generatedTimeZone: true,
		name: "Mars",
		dayLength_ms: 88775000,
		yearLength_ms: 59266496000,
		yearLength_hd: 667,
		hDayLength_ms: 88775000,
		weekLength_d: 7,
		weekLength_hd: 7,
		hYearLength_ms: 59212925000,
		monthCount: 24,
		nominalMonthLength_hd: 27,
		nominalMonthLength_ms: 2396925000,
		leapYearFreq_hd: [2, 10],
		leapYearBlocks_ms: [118514625000, 592661900000],
		monthRemainder_hd: 19,
		initialWeekDay: 0,
		initialYearProgress: 0,
		GM_km3_s2: 42828.375214,
		GM_km3_s2_primary: 132700000000,
		radius_km: 3396.19,
		surface_gravity_ms: 3.7131940089349422,
		semiMajorAxis_0_km: 227939012.0013493,
		eccentricity_0: 0.0933146065415545,
		inclination_0_deg: 1.849876654038142,
		longitudOfAscendingNode_0_deg: 49.56199905920329,
		argumentOfPeriapsis_0_deg: 286.5373583154345,
		trueAnomaly_0_deg: 23.02024685501411,
		semiMajorAxis_km_Cy: 0,
		eccentricity_Cy: 0,
		inclination_sec_Cy: 0,
		longitudOfAscendingNode_sec_Cy: 0,
		argumentOfPeriapsis_sec_Cy: 0,
		trueAnomaly_sec_Cy: 0,
		period_ms: 59357062365.00615,
		meanAnomaly_0_deg: null,
	},
	Ceres: {
		generatedTimeZone: true,
		name: "Ceres",
		dayLength_ms: 32667000,
		yearLength_ms: 145423789000,
		yearLength_hd: 1712,
		weekLength_d: 13,
		weekLength_hd: 5,
		hDayLength_ms: 84934000,
		hYearLength_ms: 145407008000,
		monthCount: 84,
		nominalMonthLength_hd: 20,
		nominalMonthLength_ms: 1698680000,
		leapYearFreq_hd: [6, 33],
		leapYearBlocks_ms: [872526982000, 4798940868000],
		monthRemainder_hd: 32,
		initialWeekDay: 0,
		initialYearProgress: 0,
		GM_km3_s2: 62.6325,
		GM_km3_s2_primary: 132700000000,
		radius_km: 469.7,
		surface_gravity_ms: 0.2838955771940551,
		semiMajorAxis_0_km: 413861654.4134015,
		eccentricity_0: 0.07837505504042046,
		inclination_0_deg: 10.58336067354914,
		longitudOfAscendingNode_0_deg: 80.49436497118826,
		argumentOfPeriapsis_0_deg: 73.92278732202695,
		trueAnomaly_0_deg: 7.121193766358798,
		semiMajorAxis_km_Cy: 0,
		eccentricity_Cy: 0,
		inclination_sec_Cy: 0,
		longitudOfAscendingNode_sec_Cy: 0,
		argumentOfPeriapsis_sec_Cy: 0,
		trueAnomaly_sec_Cy: 0,
		period_ms: 145220253719.86575,
		meanAnomaly_0_deg: null,
	},
	Jupiter: {
		generatedTimeZone: false,
		name: "Jupiter",
		GM_km3_s2: 126686531.9,
		GM_km3_s2_primary: 132700000000,
		radius_km: 71492,
		surface_gravity_ms: 24.786519847888645,
		semiMajorAxis_0_km: 778673161.1090481,
		eccentricity_0: 0.04892305962953223,
		inclination_0_deg: 1.304655711046047,
		longitudOfAscendingNode_0_deg: 100.4888615724618,
		argumentOfPeriapsis_0_deg: 275.1197059498091,
		trueAnomaly_0_deg: 20.63463654069944,
		semiMajorAxis_km_Cy: 0,
		eccentricity_Cy: 0,
		inclination_sec_Cy: 0,
		longitudOfAscendingNode_sec_Cy: 0,
		argumentOfPeriapsis_sec_Cy: 0,
		trueAnomaly_sec_Cy: 0,
		period_ms: 374780698091.21204,
		meanAnomaly_0_deg: null,
	},
	Europa: {
		generatedTimeZone: true,
		name: "Europa",
		dayLength_ms: 306822000,
		yearLength_ms: 374335776000,
		yearLength_hd: 4270,
		weekLength_d: 2,
		weekLength_hd: 7,
		hDayLength_ms: 87663000,
		hYearLength_ms: 374321010000,
		monthCount: 152,
		nominalMonthLength_hd: 28,
		nominalMonthLength_ms: 2454564000,
		leapYearFreq_hd: [6, 564],
		leapYearBlocks_ms: [2246013723000, 211125377625000],
		monthRemainder_hd: 14,
		initialWeekDay: 0,
		initialYearProgress: 0,
	},
	Ganymede: {
		generatedTimeZone: true,
		name: "Ganymede",
		dayLength_ms: 618153000,
		yearLength_ms: 374335776000,
		yearLength_hd: 4239,
		weekLength_d: 1,
		weekLength_hd: 7,
		hDayLength_ms: 88307000,
		hYearLength_ms: 374333373000,
		monthCount: 148,
		nominalMonthLength_hd: 28,
		nominalMonthLength_ms: 2472596000,
		leapYearFreq_hd: [37, 5410],
		leapYearBlocks_ms: [13850423108000, 2025156529059000],
		monthRemainder_hd: 95,
		initialWeekDay: 0,
		initialYearProgress: 0,
	},
	Callisto: {
		generatedTimeZone: true,
		name: "Callisto",
		dayLength_ms: 1441931000,
		yearLength_ms: 374335776000,
		yearLength_hd: 4413,
		weekLength_d: 1,
		weekLength_hd: 17,
		hDayLength_ms: 84819000,
		hYearLength_ms: 374306247000,
		monthCount: 64,
		nominalMonthLength_hd: 68,
		nominalMonthLength_ms: 5767692000,
		leapYearFreq_hd: [3, 68],
		leapYearBlocks_ms: [1123003560000, 25454775633000],
		monthRemainder_hd: 61,
		initialWeekDay: 0,
		initialYearProgress: 0,
	},
	Saturn: {
		generatedTimeZone: false,
		name: "Saturn",
		GM_km3_s2: 37931206.234,
		GM_km3_s2_primary: 132700000000,
		radius_km: 60268,
		surface_gravity_ms: 10.442947496734448,
		semiMajorAxis_0_km: 1433364815.997285,
		eccentricity_0: 0.05559928887285597,
		inclination_0_deg: 2.48436877980734,
		longitudOfAscendingNode_0_deg: 113.6930130794106,
		argumentOfPeriapsis_0_deg: 335.9006492558044,
		trueAnomaly_0_deg: 316.0917716241848,
		semiMajorAxis_km_Cy: 0,
		eccentricity_Cy: 0,
		inclination_sec_Cy: 0,
		longitudOfAscendingNode_sec_Cy: 0,
		argumentOfPeriapsis_sec_Cy: 0,
		trueAnomaly_sec_Cy: 0,
		period_ms: 936007905399.5223,
		meanAnomaly_0_deg: null,
	},
	Titan: {
		generatedTimeZone: true,
		name: "Titan",
		dayLength_ms: 1377648000,
		yearLength_ms: 929596607000,
		yearLength_hd: 10796,
		weekLength_d: 1,
		weekLength_hd: 16,
		hDayLength_ms: 86103000,
		hYearLength_ms: 929567988000,
		monthCount: 168,
		nominalMonthLength_hd: 64,
		nominalMonthLength_ms: 5510592000,
		leapYearFreq_hd: [4, 13],
		leapYearBlocks_ms: [3718358055000, 12084728256000],
		monthRemainder_hd: 44,
		initialWeekDay: 0,
		initialYearProgress: 0,
	},
	Enceladus: {
		generatedTimeZone: true,
		name: "Enceladus",
		dayLength_ms: 118386000,
		yearLength_ms: 929596607000,
		yearLength_hd: 10993,
		weekLength_d: 5,
		weekLength_hd: 7,
		hDayLength_ms: 84561000,
		hYearLength_ms: 929579073000,
		monthCount: 392,
		nominalMonthLength_hd: 28,
		nominalMonthLength_ms: 2367708000,
		leapYearFreq_hd: [5, 136],
		leapYearBlocks_ms: [4647979926000, 126425121636000],
		monthRemainder_hd: 17,
		initialWeekDay: 0,
		initialYearProgress: 0,
	},
	Uranus: {
		generatedTimeZone: false,
		name: "Uranus",
		GM_km3_s2: 5793951.256,
		GM_km3_s2_primary: 132700000000,
		radius_km: 25559,
		surface_gravity_ms: 8.8692545868098,
		semiMajorAxis_0_km: 2876758957.338404,
		eccentricity_0: 0.04439336258840319,
		inclination_0_deg: 0.7723604869115734,
		longitudOfAscendingNode_0_deg: 73.96006633963485,
		argumentOfPeriapsis_0_deg: 96.61122696481169,
		trueAnomaly_0_deg: 145.8440420932308,
		semiMajorAxis_km_Cy: 0,
		eccentricity_Cy: 0,
		inclination_sec_Cy: 0,
		longitudOfAscendingNode_sec_Cy: 0,
		argumentOfPeriapsis_sec_Cy: 0,
		trueAnomaly_sec_Cy: 0,
		period_ms: 2661335443838.2827,
		meanAnomaly_0_deg: null,
	},
	Titania: {
		generatedTimeZone: true,
		name: "Titania",
		dayLength_ms: 752218000,
		yearLength_ms: 2651486400000,
		yearLength_hd: 31724,
		weekLength_d: 1,
		weekLength_hd: 9,
		hDayLength_ms: 83579000,
		hYearLength_ms: 2651460196000,
		monthCount: 880,
		nominalMonthLength_hd: 36,
		nominalMonthLength_ms: 3008844000,
		leapYearFreq_hd: [4, 16],
		leapYearBlocks_ms: [10605924363000, 42423781031000],
		monthRemainder_hd: 44,
		initialWeekDay: 0,
		initialYearProgress: 0,
	},
	Neptune: {
		generatedTimeZone: false,
		name: "Neptune",
		GM_km3_s2: 6835099.97,
		GM_km3_s2_primary: 132700000000,
		radius_km: 24766,
		surface_gravity_ms: 11.14379550029934,
		semiMajorAxis_0_km: 4503002396.427352,
		eccentricity_0: 0.01127490587339749,
		inclination_0_deg: 1.764331194766304,
		longitudOfAscendingNode_0_deg: 131.8103417756993,
		argumentOfPeriapsis_0_deg: 266.115451343762,
		trueAnomaly_0_deg: 265.9963939182547,
		semiMajorAxis_km_Cy: 0,
		eccentricity_Cy: 0,
		inclination_sec_Cy: 0,
		longitudOfAscendingNode_sec_Cy: 0,
		argumentOfPeriapsis_sec_Cy: 0,
		trueAnomaly_sec_Cy: 0,
		period_ms: 5211919197601.552,
		meanAnomaly_0_deg: null,
	},
	Triton: {
		generatedTimeZone: true,
		name: "Triton",
		dayLength_ms: 507760000,
		yearLength_ms: 5199724800000,
		yearLength_hd: 61443,
		weekLength_d: 1,
		weekLength_hd: 6,
		hDayLength_ms: 84626000,
		hYearLength_ms: 5199675318000,
		monthCount: 2560,
		nominalMonthLength_hd: 24,
		nominalMonthLength_ms: 2031024000,
		leapYearFreq_hd: [2, 12],
		leapYearBlocks_ms: [10399435262000, 62396696198000],
		monthRemainder_hd: 3,
		initialWeekDay: 0,
		initialYearProgress: 0,
	},
};
